*******************************************************************************
 Revised: Feb 14, 2026         Parker Solar Probe / Sun                    -96
                         http://parkersolarprobe.jhuapl.edu/ 

 BACKGROUND:
  The Parker Solar Probe Mission will use seven Venus gravity assist flybys 
  over nearly seven years to gradually bring the spacecraft's trajectory closer
  to the Sun, which it will orbit at least 24 times with a final solar orbit
  period of 88 days.

  The spacecraft will fly through the Sun's outer corona, 5.9 million km from 
  the surface (8.5 solar radii).

  The orbit will be highly elliptical to minimize the time spent closest
  to the Sun, where incident solar radiation will be approximately 520 times 
  the intensity at Earth and temperatures near 2500 deg. F (1377 C).
 
 LAUNCH
  Date:           2018-Aug-12 07:31 UTC from NASA Kennedy Space Center
                  Complex 37
  Launch vehicle: Delta IV Heavy with Upper Stage

 EVENTS
  2018
    2018-Oct-03: Venus Flyby #1 @ 8:44 UTC
    2018-Nov-06: Perihelion #1 @ 03:27 UTC
  2019
    2019-Jan-19: Aphelion #1
    2019-Jan-20: Second orbit begins
    2019-Apr-04: Perihelion #2
    2019-Sep-01: Perihelion #3
    2019-Dec-26: Venus flyby #2
  2020
    2020-Jan-29: Perihelion #4
    2020-Jun-07: Perihelion #5
    2020-Jul-11: Venus flyby #3
    2020-Sep-27: Perihelion #6 
  2021
    2021-Jan-17: Perihelion #7
    2021-Feb-20: Venus flyby #4
    2021-Apr-29: Perihelion #8
    2021-Aug-09: Perihelion #9 
    2021-Oct-16: Venus flyby #5
    2021-Nov-21: Perihelion #10
  2022
    2022-Feb-25: Perihelion #11
    2022-Jun-01: Perihelion #12
    2022-Sep-06: Perihelion #13
    2022-Dec-11: Perihelion #14
  2023
    2023-Mar-17: Perihelion #15
    2023-Jun-22: Perihelion #16
    2023-Aug-21: Venus flyby #6
    2023-Sep-27: Perihelion #17
    2023-Dec-29: Perihelion #18
  2024
    2024-Mar-30: Perihelion #19
    2024-Jun-30: Perihelion #20
    2024-Sep-30: Perihelion #21
    2024-Nov-06: Venus flyby #7 (last one)
    2024-Dec-24: Perihelion #22 (first close approach)
  2025
    2025-Mar-22: Perihelion #23
    2025-Jun-19: Perihelion #24

 GOALS
  * Determine the structure and dynamics of the magnetic fields at the 
     sources of solar wind.
  * Trace the flow of energy that heats the corona and accelerates the solar 
     wind.
  * Determine what mechanisms accelerate and transport energetic particles.
  * Explore dusty plasma near the Sun and its influence on solar wind and 
     solar energetic particles formation.

 SPACECRAFT TRAJECTORY 
  Fit to post-launch tracking data through 2026-Jan-27. Reference planning 
  trajectory for subsequent times.

  Name                                      Start (TDB)         End (TDB) 
  ---------------------------------------  -----------------  -----------------
  spp_nom_20180812_20251001_v041_RO8       2018-Aug-12 08:17  2025-Jun-25 06:00
  spp_pred_20250625_20251030_od242_V0.2    2025-Jun-25 06:00  2025-Oct-08 12:00
  spp_pred_20251008_20251231_od247_V0.1    2025-Oct-08 12:00  2025-Nov-24 18:00
  spp_pred_20251124_20260526_od254_V0.1    2025-Nov-24 18:00  2026-Jan-15 00:00
  spp_pred_20260115_20260409_od257_V0.1    2026-Jan-15 00:00  2026-Jan-28 16:44
  spp_pred_20260128_20260617_od258_V0.1    2026-Jan-28 16:44  2026-Jun-17 00:00
  spp_nom_20180812_20300101_v044_PostV7    2026-Jun-17 00:00  2030-Jan-01 00:00
*******************************************************************************


*******************************************************************************
Ephemeris / WWW_USER Thu Apr  9 13:02:24 2026 Pasadena, USA      / Horizons
*******************************************************************************
Target body name: Parker Solar Probe (spacecraft) (-96) {source: psp_merged}
Center body name: Sun (10)                        {source: DE441}
Center-site name: BODY CENTER
*******************************************************************************
Start time      : A.D. 2018-Aug-12 08:16:24.0000 TDB
Stop  time      : A.D. 2030-Jan-01 00:01:08.0000 TDB
Step-size       : 1440 minutes
*******************************************************************************
Center geodetic : 0.0, 0.0, 0.0                   {E-lon(deg),Lat(deg),Alt(km)}
Center cylindric: 0.0, 0.0, 0.0                   {E-lon(deg),Dxy(km),Dz(km)}
Center radii    : 695700.0, 695700.0, 695700.0 km {Equator_a, b, pole_c}
Output units    : KM-S
Calendar mode   : Mixed Julian/Gregorian
Output type     : GEOMETRIC cartesian states
Output format   : 3 (position, velocity, LT, range, range-rate)
Reference frame : Ecliptic of J2000.0
*******************************************************************************
JDTDB
   X     Y     Z
   VX    VY    VZ
   LT    RG    RR
*******************************************************************************
$$SOE
2459005.844722222 = A.D. 2020-Jun-05 08:16:24.0000 TDB 
 X =-5.601051634117239E+06 Y = 2.214864684895198E+07 Z = 6.270772847797712E+05
 VX=-8.093968219819089E+01 VY=-5.727457106087246E+01 VZ= 3.885467332035585E+00
 LT= 7.623436179115303E+01 RG= 2.285448670543105E+07 RR=-3.556283852629887E+01
2459006.844722222 = A.D. 2020-Jun-06 08:16:24.0000 TDB 
 X =-1.221508906875714E+07 Y = 1.624381369677858E+07 Z = 9.277817567870803E+05
 VX=-7.027367286707893E+01 VY=-7.957286998403913E+01 VZ= 2.964031719780113E+00
 LT= 6.786456923841324E+01 RG= 2.034528602309509E+07 RR=-2.120480031751667E+01
2459007.844722222 = A.D. 2020-Jun-07 08:16:24.0000 TDB 
 X =-1.739283172409152E+07 Y = 8.501720163245007E+06 Z = 1.120392258458313E+06
 VX=-4.775884822894861E+01 VY=-9.817088740931833E+01 VZ= 1.409541831012262E+00
 LT= 6.468435852416353E+01 RG= 1.939188283611223E+07 RR=-1.227607764345171E-01
2459008.844722222 = A.D. 2020-Jun-08 08:16:24.0000 TDB 
 X =-2.028890784943719E+07 Y =-3.553187110482302E+05 Z = 1.166029637346413E+06
 VX=-1.923210708288802E+01 VY=-1.045071350407952E+02 VZ=-3.236997213331207E-01
 LT= 6.779854620718120E+01 RG= 2.032549281627743E+07 RR= 2.100585453272088E+01
2459009.844722222 = A.D. 2020-Jun-09 08:16:24.0000 TDB 
 X =-2.085019796086840E+07 Y =-9.214998258715145E+06 Z = 1.076886729222557E+06
 VX= 4.948774581229548E+00 VY=-9.917887585808258E+01 VZ=-1.646122891545225E+00
 LT= 7.612329008504797E+01 RG= 2.282118824564355E+07 RR= 3.544852888670519E+01
2459010.844722222 = A.D. 2020-Jun-10 08:16:24.0000 TDB 
 X =-1.967122901883909E+07 Y =-1.735302557905983E+07 Z = 8.972103430954637E+05
 VX= 2.106338871995923E+01 VY=-8.886016909613453E+01 VZ=-2.434571343818469E+00
 LT= 8.754959745412337E+01 RG= 2.624670901768219E+07 RR= 4.288026055048500E+01
2459011.844722222 = A.D. 2020-Jun-11 08:16:24.0000 TDB 
 X =-1.739568635726449E+07 Y =-2.455962773431760E+07 Z = 6.670261697746851E+05
 VX= 3.075263522132438E+01 VY=-7.807850114002007E+01 VZ=-2.845851181880473E+00
 LT= 1.004149898429525E+02 RG= 3.010365662506375E+07 RR= 4.586544037044666E+01
2459012.844722222 = A.D. 2020-Jun-12 08:16:24.0000 TDB 
 X =-1.447375209205377E+07 Y =-3.087903762022393E+07 Z = 4.117081262307316E+05
 VX= 3.636564305366876E+01 VY=-6.843881644777019E+01 VZ=-3.037550621863137E+00
 LT= 1.137631566105556E+02 RG= 3.410533635011742E+07 RR= 4.649497911393740E+01
2459013.844722222 = A.D. 2020-Jun-13 08:16:24.0000 TDB 
 X =-1.118138853689365E+07 Y =-3.642698101164374E+07 Z = 1.455949097510893E+05
 VX= 3.953688607990210E+01 VY=-6.021553140346987E+01 VZ=-3.107762047905073E+00
 LT= 1.271036604180126E+02 RG= 3.810471877751331E+07 RR= 4.595074615641395E+01
2459014.844722222 = A.D. 2020-Jun-14 08:16:24.0000 TDB 
 X =-7.683594854009103E+06 Y =-4.132111162343056E+07 Z =-1.234050822049044E+05
 VX= 4.124294092765504E+01 VY=-5.326915471056895E+01 VZ=-3.110931663257507E+00
 LT= 1.401956489368615E+02 RG= 4.202959819568679E+07 RR= 4.484055581992990E+01
2459015.844722222 = A.D. 2020-Jun-15 08:16:24.0000 TDB 
 X =-4.080228804133602E+06 Y =-4.566228093002857E+07 Z =-3.909123709046710E+05
 VX= 4.205191966480960E+01 VY=-4.737878894436654E+01 VZ=-3.076815840395703E+00
 LT= 1.529254044965648E+02 RG= 4.584588290466941E+07 RR= 4.347271240333649E+01
2459016.844722222 = A.D. 2020-Jun-16 08:16:24.0000 TDB 
 X =-4.330929705746908E+05 Y =-4.953265649663229E+07 Z =-6.544873965750933E+05
 VX= 4.229867513885062E+01 VY=-4.234009319793270E+01 VZ=-3.021936326695856E+00
 LT= 1.652438950013037E+02 RG= 4.953887345193475E+07 RR= 4.200490862593777E+01
2459017.844722222 = A.D. 2020-Jun-17 08:16:24.0000 TDB 
 X = 3.218691181647984E+06 Y =-5.299833503171529E+07 Z =-9.127791035221070E+05
 VX= 4.218563958904265E+01 VY=-3.798614808726125E+01 VZ=-2.955686017891106E+00
 LT= 1.771353067284484E+02 RG= 5.310382900270548E+07 RR= 4.051841605159085E+01
2459018.844722222 = A.D. 2020-Jun-18 08:16:24.0000 TDB 
 X = 6.849888849273259E+06 Y =-5.611258077646232E+07 Z =-1.165061822442289E+06
 VX= 4.183861098149352E+01 VY=-3.418587839949151E+01 VZ=-2.883526834668052E+00
 LT= 1.886009289350373E+02 RG= 5.654113606651814E+07 RR= 3.905487824595886E+01
2459019.844722222 = A.D. 2020-Jun-19 08:16:24.0000 TDB 
 X = 1.044400091974933E+07 Y =-5.891864473329264E+07 Z =-1.410976673838329E+06
 VX= 4.133782566870396E+01 VY=-3.083739328795060E+01 VZ=-2.808691614832037E+00
 LT= 1.996507121002804E+02 RG= 5.985377772199341E+07 RR= 3.763492954034176E+01
2459020.844722222 = A.D. 2020-Jun-20 08:16:24.0000 TDB 
 X = 1.399016169220563E+07 Y =-6.145199206280681E+07 Z =-1.650383085904941E+06
 VX= 4.073565893891823E+01 VY=-2.786133881184215E+01 VZ=-2.733114449975336E+00
 LT= 2.102987559951878E+02 RG= 6.304598097413959E+07 RR= 3.626787746417154E+01
2459021.844722222 = A.D. 2020-Jun-21 08:16:24.0000 TDB 
 X = 1.748121796677277E+07 Y =-6.374200513978995E+07 Z =-1.883271298138916E+06
 VX= 4.006698624470724E+01 VY=-2.519547137366907E+01 VZ=-2.657954206890622E+00
 LT= 2.205608660142700E+02 RG= 6.612248416102666E+07 RR= 3.495687229257562E+01
